{"type": "FeatureCollection","features": [{"type": "Feature", "geometry": {"type":"Point","coordinates":[31.1508577,30.9394947]}, "properties": {"osm_id": 4910805006, "osm_type": "nodes", "addr_street": null, "historic": null, "staff_count_doctors": null, "water": null, "healthcare": null, "health_facility_type": null, "network": null, "opening_hours": null, "operator_type": null, "access_roof": null, "roof_material": null, "capacity": null, "fuel": null, "emergency": null, "landuse": null, "health_facility_bed": null, "access": null, "office": null, "addr_housenumber": null, "isced_level": null, "backup_generator": null, "staff_count_nurses": null, "power": "tower", "government": null, "building": null, "amenity": null, "toilets_disposal": null, "name": null, "waterway": null, "religion": null, "operator": null, "status": null, "shop": null, "denomination": null, "leisure": null, "health_facility_level": null, "building_material": null, "military": null, "toilets_handwashing": null, "natural": null, "medical_system_western": null}},{"type": "Feature", "geometry": {"type":"Point","coordinates":[31.1489909,30.9394234]}, "properties": {"osm_id": 4910805005, "osm_type": "nodes", "addr_street": null, "historic": null, "staff_count_doctors": null, "water": null, "healthcare": null, "health_facility_type": null, "network": null, "opening_hours": null, "operator_type": null, "access_roof": null, "roof_material": null, "capacity": null, "fuel": null, "emergency": null, "landuse": null, "health_facility_bed": null, "access": null, "office": null, "addr_housenumber": null, "isced_level": null, "backup_generator": null, "staff_count_nurses": null, "power": "tower", "government": null, "building": null, "amenity": null, "toilets_disposal": null, "name": null, "waterway": null, "religion": null, "operator": null, "status": null, "shop": null, "denomination": null, "leisure": null, "health_facility_level": null, "building_material": null, "military": null, "toilets_handwashing": null, "natural": null, "medical_system_western": null}},{"type": "Feature", "geometry": {"type":"Point","coordinates":[31.1552216,30.9396442]}, "properties": {"osm_id": 4910805008, "osm_type": "nodes", "addr_street": null, "historic": null, "staff_count_doctors": null, "water": null, "healthcare": null, "health_facility_type": null, "network": null, "opening_hours": null, "operator_type": null, "access_roof": null, "roof_material": null, "capacity": null, "fuel": null, "emergency": null, "landuse": null, "health_facility_bed": null, "access": null, "office": null, "addr_housenumber": null, "isced_level": null, "backup_generator": null, "staff_count_nurses": null, "power": "tower", "government": null, "building": null, "amenity": null, "toilets_disposal": null, "name": null, "waterway": null, "religion": null, "operator": null, "status": null, "shop": null, "denomination": null, "leisure": null, "health_facility_level": null, "building_material": null, "military": null, "toilets_handwashing": null, "natural": null, "medical_system_western": null}},{"type": "Feature", "geometry": {"type":"Point","coordinates":[31.1526869,30.9395568]}, "properties": {"osm_id": 4910805007, "osm_type": "nodes", "addr_street": null, "historic": null, "staff_count_doctors": null, "water": null, "healthcare": null, "health_facility_type": null, "network": null, "opening_hours": null, "operator_type": null, "access_roof": null, "roof_material": null, "capacity": null, "fuel": null, "emergency": null, "landuse": null, "health_facility_bed": null, "access": null, "office": null, "addr_housenumber": null, "isced_level": null, "backup_generator": null, "staff_count_nurses": null, "power": "tower", "government": null, "building": null, "amenity": null, "toilets_disposal": null, "name": null, "waterway": null, "religion": null, "operator": null, "status": null, "shop": null, "denomination": null, "leisure": null, "health_facility_level": null, "building_material": null, "military": null, "toilets_handwashing": null, "natural": null, "medical_system_western": null}},{"type": "Feature", "geometry": {"type":"Point","coordinates":[31.147175,30.9393843]}, "properties": {"osm_id": 4910805004, "osm_type": "nodes", "addr_street": null, "historic": null, "staff_count_doctors": null, "water": null, "healthcare": null, "health_facility_type": null, "network": null, "opening_hours": null, "operator_type": null, "access_roof": null, "roof_material": null, "capacity": null, "fuel": null, "emergency": null, "landuse": null, "health_facility_bed": null, "access": null, "office": null, "addr_housenumber": null, "isced_level": null, "backup_generator": null, "staff_count_nurses": null, "power": "tower", "government": null, "building": null, "amenity": null, "toilets_disposal": null, "name": null, "waterway": null, "religion": null, "operator": null, "status": null, "shop": null, "denomination": null, "leisure": null, "health_facility_level": null, "building_material": null, "military": null, "toilets_handwashing": null, "natural": null, "medical_system_western": null}},{"type": "Feature", "geometry": {"type":"LineString","coordinates":[[31.169727,30.9401285],[31.1692496,30.9400894],[31.1676993,30.9400572],[31.1656179,30.9399744],[31.1634962,30.9399168],[31.1614578,30.9398363],[31.1593733,30.9397673],[31.1573272,30.9396994],[31.1552216,30.9396442],[31.1526869,30.9395568],[31.1508577,30.9394947],[31.1489909,30.9394234],[31.147175,30.9393843],[31.1453135,30.9392968],[31.1434575,30.939237],[31.1416791,30.9391933],[31.1398579,30.9391312],[31.1384351,30.9390738],[31.1381836,30.9417565],[31.1379377,30.9441172],[31.1377429,30.946179],[31.1374999,30.948509],[31.1368262,30.9513039],[31.1362738,30.9538145],[31.1369951,30.9552437],[31.1383345,30.9578217],[31.1394003,30.9598657]]}, "properties": {"osm_id": 265857729, "osm_type": "ways_line", "water": null, "landuse": null, "waterway": null, "natural": null}},{"type": "Feature", "geometry": {"type":"Polygon","coordinates":[[[31.1475503,30.9533215],[31.1498614,30.9518982],[31.1508396,30.9512959],[31.1520853,30.9527243],[31.1487995,30.9547558],[31.1475503,30.9533215]]]}, "properties": {"osm_id": 95830904, "osm_type": "ways_poly", "addr_street": null, "historic": null, "staff_count_doctors": null, "water": null, "healthcare": null, "health_facility_type": null, "network": null, "opening_hours": null, "operator_type": null, "access_roof": null, "roof_material": null, "capacity": null, "fuel": null, "emergency": null, "landuse": null, "health_facility_bed": null, "access": null, "office": null, "addr_housenumber": null, "isced_level": null, "backup_generator": null, "staff_count_nurses": null, "power": null, "government": null, "building": null, "amenity": "hospital", "toilets_disposal": null, "name": null, "waterway": null, "religion": null, "operator": null, "status": null, "shop": null, "denomination": null, "leisure": null, "health_facility_level": null, "building_material": null, "military": null, "toilets_handwashing": null, "natural": null, "medical_system_western": null}},{"type": "Feature", "geometry": {"type":"Polygon","coordinates":[[[31.1441634,30.9234263],[31.1448553,30.9231607],[31.1455679,30.9246234],[31.1458183,30.9253369],[31.1459798,30.9259936],[31.145978,30.9269668],[31.145675,30.929665],[31.1458144,30.9302017],[31.1462843,30.9309422],[31.1471582,30.9319762],[31.1480217,30.9327594],[31.1492295,30.9338838],[31.1501846,30.9348423],[31.1510777,30.9359034],[31.1525171,30.9376396],[31.1530573,30.9381741],[31.1535145,30.9386665],[31.1539081,30.939084],[31.1541556,30.9393642],[31.1544445,30.9397219],[31.1547521,30.9400322],[31.155108,30.9404462],[31.155487,30.9409379],[31.1562034,30.9417463],[31.1567121,30.9422393],[31.1572473,30.9427496],[31.1575887,30.9430125],[31.1579139,30.9433409],[31.1581822,30.9435497],[31.1584106,30.9437143],[31.158768,30.9439981],[31.1591542,30.9443281],[31.1595428,30.9446985],[31.1599799,30.9450934],[31.160315,30.9453163],[31.1607131,30.9456364],[31.1611621,30.9459747],[31.1615684,30.9462995],[31.1619367,30.9465801],[31.1622392,30.9468142],[31.1625571,30.9470679],[31.1629126,30.947344],[31.1631565,30.947588],[31.1634376,30.9478289],[31.1637409,30.9480963],[31.163979,30.9483369],[31.1643466,30.9486174],[31.1651724,30.949446],[31.16543,30.9497119],[31.1656925,30.949936],[31.1660308,30.9500795],[31.166478,30.9502915],[31.1670352,30.9503499],[31.1675621,30.9503454],[31.1683076,30.9504702],[31.1693638,30.950694],[31.1700487,30.9508238],[31.1707744,30.9509133],[31.1713444,30.9509616],[31.1720962,30.9510262],[31.1731495,30.9510002],[31.1740522,30.9509869],[31.1747049,30.9510268],[31.1762368,30.9510076],[31.1771968,30.9509196],[31.1772912,30.9508539],[31.1783936,30.9507809],[31.1785352,30.9508115],[31.1788447,30.9507878],[31.1789189,30.9508218],[31.1796831,30.9507379],[31.1804561,30.9506661],[31.1808992,30.9505685],[31.1815838,30.9505763],[31.1823682,30.9506647],[31.1832527,30.9506748],[31.1840014,30.9507197],[31.1850132,30.9508295],[31.1855428,30.9510105],[31.1859151,30.9512982],[31.1864513,30.9516788],[31.1867468,30.9519323],[31.1870448,30.9523959],[31.1872475,30.9528213],[31.1874231,30.9531585],[31.1875933,30.9535784],[31.1878889,30.9539508],[31.1884106,30.954309],[31.188856,30.9545285],[31.189541,30.954796],[31.1906009,30.9550817],[31.1917881,30.9551514],[31.1946827,30.9554443],[31.1960975,30.956281],[31.1964715,30.9567691],[31.1967479,30.9574385],[31.1967642,30.9582613],[31.1966341,30.9589585],[31.1962601,30.9596558],[31.1951217,30.9612874],[31.1949917,30.9619288],[31.1950892,30.9624308],[31.1962926,30.9640066],[31.1975285,30.9655962],[31.1987481,30.966642],[31.1997076,30.9674089],[31.2006996,30.9675763],[31.2018704,30.9674368],[31.2028624,30.9671579],[31.2046349,30.9662795],[31.205757,30.9655544],[31.2069604,30.9648293],[31.2088793,30.9641321],[31.210847,30.9640066],[31.2127171,30.9641042],[31.2156442,30.9642297],[31.2171241,30.9647038],[31.2177745,30.9653731],[31.218186,30.9661979],[31.2185914,30.9674916],[31.2189664,30.9688034],[31.2193984,30.9701463],[31.2195437,30.9706564],[31.2203915,30.9719317],[31.2205631,30.9722049],[31.2207873,30.9724476],[31.2210673,30.9727281],[31.2210398,30.9727788],[31.2212689,30.9730499],[31.2214455,30.9729557],[31.2219254,30.9737904],[31.2222163,30.9744264],[31.2226657,30.9751718],[31.2235157,30.976349],[31.2239516,30.9769643],[31.2250432,30.9785759],[31.2256086,30.9793595],[31.226131,30.9800888],[31.2266977,30.9809362],[31.2273164,30.9816922],[31.2278158,30.9823131],[31.2285006,30.9832857],[31.2289373,30.9841688],[31.2292437,30.9849178],[31.2294387,30.9854455],[31.2296192,30.9862467],[31.2296179,30.9870474],[31.2295808,30.9876154],[31.2294096,30.9883149],[31.229151,30.9891364],[31.2288076,30.9897974],[31.2283613,30.9904352],[31.2277452,30.9912064],[31.227142,30.992065],[31.226831,30.9926471],[31.2267781,30.9930949],[31.2270069,30.9940016],[31.2273232,30.9946929],[31.2278918,30.9956035],[31.2282762,30.9963356],[31.2284534,30.9969546],[31.2285196,30.9972799],[31.227941,30.9973481],[31.2279165,30.9971276],[31.2277364,30.9963787],[31.2272745,30.9955453],[31.2267103,30.9946724],[31.2263411,30.9939066],[31.2262434,30.9935455],[31.2262433,30.9930495],[31.2262779,30.9927887],[31.2263565,30.9924629],[31.2264546,30.9922086],[31.2267705,30.9917551],[31.2274775,30.9908469],[31.2281082,30.9899494],[31.228382,30.989533],[31.228772,30.9886869],[31.228945,30.9879702],[31.2291231,30.987205],[31.2290112,30.9862538],[31.2288055,30.9854009],[31.2284708,30.9845906],[31.2280352,30.9836281],[31.227497,30.9827974],[31.2269274,30.9821307],[31.2262628,30.9813244],[31.2256513,30.9803907],[31.2250662,30.9796442],[31.2244532,30.9787429],[31.2235707,30.9774858],[31.2231372,30.9768381],[31.2231161,30.9767899],[31.2227179,30.9763477],[31.222417,30.975867],[31.2220443,30.9752717],[31.2216358,30.9747594],[31.2215382,30.9745836],[31.2213902,30.9743302],[31.2211768,30.9740974],[31.2211768,30.9740013],[31.2208966,30.9735689],[31.2209153,30.9734728],[31.2206164,30.9730163],[31.220467,30.9729282],[31.2201309,30.9724789],[31.2199159,30.9721915],[31.2198038,30.9719833],[31.2195115,30.9716519],[31.2192528,30.9713586],[31.2192528,30.9714867],[31.2189495,30.9718335],[31.2187127,30.9702591],[31.2182111,30.9685389],[31.2178885,30.9673364],[31.2175439,30.96616],[31.2172029,30.9655839],[31.21675,30.9651082],[31.2155629,30.9646759],[31.2106193,30.9645922],[31.2089931,30.9647735],[31.2075458,30.9651779],[31.2055293,30.9663631],[31.2039418,30.9672468],[31.2025828,30.9677324],[31.2015901,30.9680017],[31.2008928,30.9680385],[31.1998413,30.9678913],[31.1991332,30.9675785],[31.1975287,30.9663829],[31.1962668,30.9650369],[31.1946199,30.9626817],[31.1943088,30.9614811],[31.195505,30.9597607],[31.1962926,30.9581358],[31.1960975,30.9571875],[31.1956445,30.9566555],[31.1946014,30.9559882],[31.1934344,30.9558275],[31.1925686,30.9557929],[31.1904871,30.9557372],[31.1902432,30.9556814],[31.1890247,30.9552797],[31.1885096,30.9550245],[31.1884237,30.9550186],[31.1881234,30.9548972],[31.1879808,30.9547949],[31.1875597,30.95444],[31.1872685,30.9541554],[31.1870155,30.9537665],[31.1867053,30.9531177],[31.1865882,30.9527626],[31.186249,30.9522393],[31.1856833,30.9518214],[31.1851436,30.9515348],[31.1845287,30.9513491],[31.1839955,30.951256],[31.1831011,30.951204],[31.182451,30.9511935],[31.1816829,30.9511372],[31.1805876,30.9511009],[31.1799102,30.9512646],[31.178959,30.9513168],[31.1774688,30.9514068],[31.1758263,30.9514888],[31.1751124,30.9515318],[31.1747946,30.9515288],[31.1745542,30.951472],[31.1743296,30.9514918],[31.1741505,30.9515578],[31.1739105,30.9515719],[31.1737522,30.9515239],[31.1730334,30.951523],[31.1723312,30.9515049],[31.171481,30.9515103],[31.1708092,30.9514601],[31.1703179,30.951409],[31.1697124,30.9512338],[31.1690833,30.9511142],[31.1675071,30.9507929],[31.1670004,30.9508154],[31.1664885,30.9508627],[31.1660993,30.9507706],[31.1657555,30.9505843],[31.1653673,30.9503066],[31.1651315,30.9500891],[31.1648547,30.9498692],[31.1645806,30.9495338],[31.1638658,30.9490605],[31.1636292,30.9488119],[31.1634091,30.9485298],[31.1631263,30.9482446],[31.1628586,30.9479726],[31.1624899,30.9476764],[31.1621478,30.9473948],[31.1617735,30.9470943],[31.1614032,30.9467792],[31.1611709,30.9465734],[31.1607055,30.9461918],[31.1603203,30.9459147],[31.1598602,30.9456059],[31.1594994,30.9453373],[31.1589511,30.9449478],[31.1586191,30.9446786],[31.1582875,30.9444313],[31.1579248,30.9440959],[31.1577013,30.9438947],[31.1577444,30.9437256],[31.1572758,30.9435091],[31.1570627,30.9434067],[31.1567791,30.9431994],[31.1562552,30.9427305],[31.1557552,30.9422238],[31.1554793,30.9419095],[31.1549679,30.9413883],[31.1546842,30.9410191],[31.1544145,30.9407005],[31.1541289,30.9403888],[31.1538245,30.9399787],[31.1534208,30.9396317],[31.1531501,30.9393607],[31.1527088,30.9389035],[31.1523642,30.9384906],[31.1518604,30.9379215],[31.1503169,30.9360897],[31.1495611,30.9352552],[31.1484275,30.9341865],[31.1476283,30.9334028],[31.1467348,30.9324239],[31.145349,30.9309945],[31.1450237,30.9302271],[31.1449654,30.9295243],[31.1451321,30.9269335],[31.1450182,30.9258117],[31.144789,30.9247845],[31.1441634,30.9234263]]]}, "properties": {"osm_id": 287683039, "osm_type": "ways_poly", "addr_street": null, "historic": null, "staff_count_doctors": null, "water": null, "healthcare": null, "health_facility_type": null, "network": null, "opening_hours": null, "operator_type": null, "access_roof": null, "roof_material": null, "capacity": null, "fuel": null, "emergency": null, "landuse": null, "health_facility_bed": null, "access": null, "office": null, "addr_housenumber": null, "isced_level": null, "backup_generator": null, "staff_count_nurses": null, "power": null, "government": null, "building": null, "amenity": null, "toilets_disposal": null, "name": null, "waterway": null, "religion": null, "operator": null, "status": null, "shop": null, "denomination": null, "leisure": null, "health_facility_level": null, "building_material": null, "military": null, "toilets_handwashing": null, "natural": "water", "medical_system_western": null}},{"type": "Feature", "geometry": {"type":"Polygon","coordinates":[[[31.1418495,30.9395746],[31.1426675,30.9395447],[31.142689,30.9389121],[31.1427641,30.9384037],[31.1441427,30.9380885],[31.1457467,30.937725],[31.1460981,30.9385785],[31.1462349,30.9388868],[31.1464789,30.9392181],[31.1468196,30.9395079],[31.1471978,30.9397265],[31.1476323,30.9399381],[31.1516315,30.9419994],[31.1522913,30.9423905],[31.152581,30.9426527],[31.1528385,30.9430576],[31.1534715,30.9443735],[31.1540025,30.9454225],[31.1540143,30.9454466],[31.1552739,30.9480311],[31.1559069,30.9493216],[31.1562905,30.949922],[31.1556977,30.9504672],[31.1554295,30.9506627],[31.1547911,30.9511112],[31.1529592,30.9522775],[31.1528921,30.9523051],[31.1527875,30.9522775],[31.1523436,30.9517898],[31.1478496,30.9467199],[31.1450118,30.9435494],[31.1446436,30.9431399],[31.1437458,30.9421357],[31.1433133,30.9416543],[31.1428841,30.9411545],[31.1428379,30.9410861],[31.1426219,30.9407232],[31.1425361,30.9405685],[31.1423644,30.9403229],[31.1422806,30.9401987],[31.1420587,30.9398668],[31.1418495,30.9395746]]]}, "properties": {"osm_id": 765356373, "osm_type": "ways_poly", "addr_street": null, "historic": null, "staff_count_doctors": null, "water": null, "healthcare": null, "health_facility_type": null, "network": null, "opening_hours": null, "operator_type": null, "access_roof": null, "roof_material": null, "capacity": null, "fuel": null, "emergency": null, "landuse": "residential", "health_facility_bed": null, "access": null, "office": null, "addr_housenumber": null, "isced_level": null, "backup_generator": null, "staff_count_nurses": null, "power": null, "government": null, "building": null, "amenity": null, "toilets_disposal": null, "name": "منشيه البكري", "waterway": null, "religion": null, "operator": null, "status": null, "shop": null, "denomination": null, "leisure": null, "health_facility_level": null, "building_material": null, "military": null, "toilets_handwashing": null, "natural": null, "medical_system_western": null}},{"type": "Feature", "geometry": {"type":"Polygon","coordinates":[[[31.1505237,30.954856],[31.1527888,30.9533977],[31.1528264,30.9533988],[31.1529431,30.9534391],[31.1529981,30.9535093],[31.1541232,30.9548215],[31.1557862,30.956756],[31.1591564,30.960673],[31.1587152,30.9608455],[31.1582646,30.9611215],[31.1567478,30.9620922],[31.1567236,30.9620864],[31.1562717,30.9615355],[31.1553509,30.9604648],[31.1549172,30.9599479],[31.1537062,30.958565],[31.15265,30.9573051],[31.1515725,30.9560717],[31.1505237,30.954856]]]}, "properties": {"osm_id": 763394429, "osm_type": "ways_poly", "addr_street": null, "historic": null, "staff_count_doctors": null, "water": null, "healthcare": null, "health_facility_type": null, "network": null, "opening_hours": null, "operator_type": null, "access_roof": null, "roof_material": null, "capacity": null, "fuel": null, "emergency": null, "landuse": "residential", "health_facility_bed": null, "access": null, "office": null, "addr_housenumber": null, "isced_level": null, "backup_generator": null, "staff_count_nurses": null, "power": null, "government": null, "building": null, "amenity": null, "toilets_disposal": null, "name": "المستعمره", "waterway": null, "religion": null, "operator": null, "status": null, "shop": null, "denomination": null, "leisure": null, "health_facility_level": null, "building_material": null, "military": null, "toilets_handwashing": null, "natural": null, "medical_system_western": null}},{"type": "Feature", "geometry": {"type":"Polygon","coordinates":[[[31.155585,30.9406812],[31.1562288,30.9403844],[31.1563414,30.9405041],[31.1587822,30.9392388],[31.1602843,30.941093],[31.1616817,30.9404051],[31.1628216,30.939922],[31.1678213,30.9383692],[31.1679393,30.9384152],[31.1673224,30.9394343],[31.1670488,30.9397886],[31.1654475,30.9414013],[31.1643237,30.9424802],[31.1636947,30.9430772],[31.1630295,30.9436857],[31.1621726,30.944469],[31.1610276,30.9455393],[31.1581707,30.9432486],[31.1571112,30.9422893],[31.1565024,30.9417026],[31.1561912,30.9413553],[31.155585,30.9406812]]]}, "properties": {"osm_id": 765356371, "osm_type": "ways_poly", "addr_street": null, "historic": null, "staff_count_doctors": null, "water": null, "healthcare": null, "health_facility_type": null, "network": null, "opening_hours": null, "operator_type": null, "access_roof": null, "roof_material": null, "capacity": null, "fuel": null, "emergency": null, "landuse": "residential", "health_facility_bed": null, "access": null, "office": null, "addr_housenumber": null, "isced_level": null, "backup_generator": null, "staff_count_nurses": null, "power": null, "government": null, "building": null, "amenity": null, "toilets_disposal": null, "name": "عزبة حمد", "waterway": null, "religion": null, "operator": null, "status": null, "shop": null, "denomination": null, "leisure": null, "health_facility_level": null, "building_material": null, "military": null, "toilets_handwashing": null, "natural": null, "medical_system_western": null}},{"type": "Feature", "geometry": {"type":"Polygon","coordinates":[[[31.1540143,30.9454466],[31.1574733,30.9443815],[31.1578032,30.9446794],[31.1584738,30.945227],[31.1589164,30.9455467],[31.1593455,30.9457422],[31.1596915,30.9459654],[31.1600107,30.9462552],[31.1600375,30.9463012],[31.1599544,30.9464738],[31.1562905,30.949922],[31.1559069,30.9493216],[31.1552739,30.9480311],[31.1540143,30.9454466]]]}, "properties": {"osm_id": 765356372, "osm_type": "ways_poly", "addr_street": null, "historic": null, "staff_count_doctors": null, "water": null, "healthcare": null, "health_facility_type": null, "network": null, "opening_hours": null, "operator_type": null, "access_roof": null, "roof_material": null, "capacity": null, "fuel": null, "emergency": null, "landuse": "residential", "health_facility_bed": null, "access": null, "office": null, "addr_housenumber": null, "isced_level": null, "backup_generator": null, "staff_count_nurses": null, "power": null, "government": null, "building": null, "amenity": null, "toilets_disposal": null, "name": "عزبة البرلس", "waterway": null, "religion": null, "operator": null, "status": null, "shop": null, "denomination": null, "leisure": null, "health_facility_level": null, "building_material": null, "military": null, "toilets_handwashing": null, "natural": null, "medical_system_western": null}},{"type": "Feature", "geometry": {"type":"Polygon","coordinates":[[[31.1481721,30.9499612],[31.1491723,30.9493149],[31.1508396,30.9512959],[31.1498614,30.9518982],[31.1481721,30.9499612]]]}, "properties": {"osm_id": 95830900, "osm_type": "ways_poly", "addr_street": null, "historic": null, "staff_count_doctors": null, "water": null, "healthcare": null, "health_facility_type": null, "network": null, "opening_hours": null, "operator_type": null, "access_roof": null, "roof_material": null, "capacity": null, "fuel": null, "emergency": null, "landuse": null, "health_facility_bed": null, "access": null, "office": null, "addr_housenumber": null, "isced_level": null, "backup_generator": null, "staff_count_nurses": null, "power": null, "government": null, "building": null, "amenity": "hospital", "toilets_disposal": null, "name": null, "waterway": null, "religion": null, "operator": null, "status": null, "shop": null, "denomination": null, "leisure": null, "health_facility_level": null, "building_material": null, "military": null, "toilets_handwashing": null, "natural": null, "medical_system_western": null}}]}